[{"OBJECT_NAME":"TEVEL2-6","OBJECT_ID":"2025-052F","EPOCH":"2026-03-09T15:35:24.554400","MEAN_MOTION":15.30760889,"ECCENTRICITY":0.0004769,"INCLINATION":97.4016,"RA_OF_ASC_NODE":325.0381,"ARG_OF_PERICENTER":95.6604,"MEAN_ANOMALY":264.5181,"EPHEMERIS_TYPE":0,"CLASSIFICATION_TYPE":"U","NORAD_CAT_ID":63215,"ELEMENT_SET_NO":999,"REV_AT_EPOCH":5486,"BSTAR":0.00070909,"MEAN_MOTION_DOT":0.00021046,"MEAN_MOTION_DDOT":0},{"OBJECT_NAME":"STARLINK-34557","OBJECT_ID":"2025-144C","EPOCH":"2026-03-09T15:09:26.954208","MEAN_MOTION":15.30196866,"ECCENTRICITY":0.0001265,"INCLINATION":53.16,"RA_OF_ASC_NODE":181.2678,"ARG_OF_PERICENTER":65.2242,"MEAN_ANOMALY":294.8891,"EPHEMERIS_TYPE":0,"CLASSIFICATION_TYPE":"U","NORAD_CAT_ID":64726,"ELEMENT_SET_NO":999,"REV_AT_EPOCH":3970,"BSTAR":0.0014798,"MEAN_MOTION_DOT":0.00043723,"MEAN_MOTION_DDOT":0}]
